SL-14 R/B               
1 16792U 86046B   26062.47593962  .00000602  00000+0  66648-4 0  9991
2 16792  82.4782  86.0548 0021653 247.1070 112.7861 14.85583205125484
SL-14 R/B               
1 16882U 86055B   26062.27056740  .00000591  00000+0  65311-4 0  9990
2 16882  82.5212 132.7072 0018742 358.2397  67.8120 14.85635749118419
AJISAI (EGS)            
1 16908U 86061A   26062.45479865 -.00000074  00000+0  16548-3 0  9997
2 16908  50.0081 112.5206 0011250 270.9667 172.9183 12.44515534467229
SL-14 R/B               
1 17567U 87024B   26062.17495575  .00000534  00000+0  58038-4 0  9995
2 17567  82.5253  98.8885 0016688 283.4998  76.4359 14.86124633 87165
COSMOS 1833             
1 17589U 87027A   26062.20605435 -.00000129  00000+0 -43123-4 0  9995
2 17589  70.9233 339.6445 0024558 223.5148 136.4036 14.13056167  9409
SL-16 R/B               
1 17590U 87027B   26062.05734274 -.00000185  00000+0 -67890-4 0  9993
2 17590  71.0020 290.4721 0003734 156.8780 203.2513 14.17166526 14405
SL-14 R/B               
1 17912U 87038B   26062.16657549  .00000514  00000+0  56822-4 0  9991
2 17912  82.5014 302.9529 0019110 181.7294 178.3860 14.85362340 78268
COSMOS 1844             
1 17973U 87041A   26062.38953809 -.00000068  00000+0 -10020-4 0  9990
2 17973  70.8994  47.4636 0029659  27.3569 332.9107 14.14553224  2692
SL-14 R/B               
1 18153U 87055B   26062.27937484  .00000763  00000+0  84958-4 0  9996
2 18153  82.5029 355.0710 0021671  38.2733 322.0016 14.85620176 68985
COSMOS 1867             
1 18187U 87060A   26062.15372899  .00000007  00000+0  40140-4 0  9995
2 18187  65.0120 325.0088 0014388 278.2415  81.7037 14.31501790 19007
SL-14 R/B               
1 18749U 88001B   26062.47629519  .00000761  00000+0  85252-4 0  9994
2 18749  82.5142 201.2028 0016605 257.9558 101.9797 14.85518630 41108
